{
"type": "FeatureCollection",
"name": "2026_contour__begraafplaats",
"features": [
{ "type": "Feature", "properties": { "id": 1, "naam": "Olsene Nieuw" }, "geometry": { "type": "MultiPolygon", "coordinates": [ [ [ [ 85648.922654770314693, 181435.371456015855074 ], [ 85657.473438777029514, 181330.872703943401575 ], [ 85623.383390754461288, 181315.286591932177544 ], [ 85566.23023871332407, 181305.155775923281908 ], [ 85566.160478718578815, 181305.979647923260927 ], [ 85555.882782705128193, 181427.363712009042501 ], [ 85556.017246708273888, 181427.376064009964466 ], [ 85594.661278732120991, 181430.92857601121068 ], [ 85595.155294738709927, 181424.861184008419514 ], [ 85600.128670737147331, 181425.259328007698059 ], [ 85605.137182742357254, 181425.660352006554604 ], [ 85610.102366745471954, 181426.057856008410454 ], [ 85609.662238746881485, 181432.058560013771057 ], [ 85648.922654770314693, 181435.371456015855074 ] ] ] ] } },
{ "type": "Feature", "properties": { "id": 2, "naam": "Machelen Oud" }, "geometry": { "type": "MultiPolygon", "coordinates": [ [ [ [ 87893.824992321431637, 183673.124993562698364 ], [ 87898.696992330253124, 183655.174017548561096 ], [ 87898.775776326656342, 183654.729857549071312 ], [ 87899.23203232884407, 183652.155009545385838 ], [ 87899.594976328313351, 183650.107073545455933 ], [ 87899.551264330744743, 183649.78886554390192 ], [ 87897.87299232929945, 183637.574977535754442 ], [ 87896.091360323131084, 183635.147457536309958 ], [ 87895.812128327786922, 183634.766977533698082 ], [ 87889.150048322975636, 183625.689473528414965 ], [ 87889.237984322011471, 183625.576449528336525 ], [ 87888.209824323654175, 183624.496577527374029 ], [ 87885.600480318069458, 183621.756161525845528 ], [ 87883.0543043166399, 183619.909185525029898 ], [ 87881.368608318269253, 183618.686337523162365 ], [ 87880.725280314683914, 183618.29779352247715 ], [ 87876.127840310335159, 183615.52121752128005 ], [ 87873.911520309746265, 183614.182785522192717 ], [ 87862.816992305219173, 183609.590529516339302 ], [ 87861.835232302546501, 183609.179009515792131 ], [ 87833.098592281341553, 183634.337921533733606 ], [ 87832.924000285565853, 183653.507009547203779 ], [ 87834.793952286243439, 183663.556929554790258 ], [ 87837.81833628565073, 183672.966977562755346 ], [ 87845.568032294511795, 183680.963969565927982 ], [ 87846.970720291137695, 183682.411265566945076 ], [ 87848.128288291394711, 183683.605889569967985 ], [ 87848.149472296237946, 183683.627777568995953 ], [ 87848.234848290681839, 183683.634817566722631 ], [ 87851.227232292294502, 183683.882241569459438 ], [ 87851.447520293295383, 183683.900481570512056 ], [ 87878.187232315540314, 183686.111553568392992 ], [ 87891.248160324990749, 183682.619585566222668 ], [ 87891.324448324739933, 183682.338433567434549 ], [ 87893.824992321431637, 183673.124993562698364 ] ] ] ] } },
{ "type": "Feature", "properties": { "id": 3, "naam": "Machelen Nieuw" }, "geometry": { "type": "MultiPolygon", "coordinates": [ [ [ [ 87615.569440133869648, 183282.528193291276693 ], [ 87630.802336141467094, 183211.180865243077278 ], [ 87640.045408152043819, 183212.718081243336201 ], [ 87649.071072153747082, 183214.219201244413853 ], [ 87659.37744016200304, 183215.933249246329069 ], [ 87669.093856170773506, 183217.549249246716499 ], [ 87678.792544178664684, 183219.162241246551275 ], [ 87686.959520183503628, 183220.520513247698545 ], [ 87705.270240195095539, 183208.170817241072655 ], [ 87718.74748820066452, 183199.0810252353549 ], [ 87737.100768215954304, 183186.702657226473093 ], [ 87768.027360238134861, 183165.844161212444305 ], [ 87768.259040236473083, 183165.687937211245298 ], [ 87771.216992236673832, 183163.692865207791328 ], [ 87801.460768260061741, 183143.294977195560932 ], [ 87706.373984195291996, 183067.983809143304825 ], [ 87677.157088175415993, 183103.574657168239355 ], [ 87670.30678416788578, 183098.797825165092945 ], [ 87643.099808149039745, 183079.826113149523735 ], [ 87639.969760149717331, 183077.643521148711443 ], [ 87635.886752143502235, 183083.303617153316736 ], [ 87634.531104147434235, 183085.182913154363632 ], [ 87582.053792111575603, 183157.930689204484224 ], [ 87562.845472097396851, 183184.55852922424674 ], [ 87569.12220810353756, 183189.027265228331089 ], [ 87589.915552116930485, 183203.831297237426043 ], [ 87605.25577612221241, 183205.915073238313198 ], [ 87589.847008116543293, 183270.750977281481028 ], [ 87590.819872118532658, 183271.225601281970739 ], [ 87595.933152116835117, 183273.720193285495043 ], [ 87606.772256128489971, 183280.183425288647413 ], [ 87609.857568129897118, 183282.023169290274382 ], [ 87613.628320127725601, 183284.271681293845177 ], [ 87615.020000129938126, 183285.101505294442177 ], [ 87615.404000133275986, 183283.302977290004492 ], [ 87615.569440133869648, 183282.528193291276693 ] ] ] ] } },
{ "type": "Feature", "properties": { "id": 4, "naam": "Olsene Oud" }, "geometry": { "type": "MultiPolygon", "coordinates": [ [ [ [ 85884.473886936903, 181527.904448077082634 ], [ 85869.627486921846867, 181510.684352066367865 ], [ 85860.372766919434071, 181499.950016058981419 ], [ 85857.368990913033485, 181496.465984057635069 ], [ 85850.621022909879684, 181494.046016056090593 ], [ 85848.828254908323288, 181494.486656054854393 ], [ 85844.961054906249046, 181495.437184054404497 ], [ 85843.488990910351276, 181495.798976056277752 ], [ 85838.701982900500298, 181497.531968057155609 ], [ 85834.33999890089035, 181500.025984060019255 ], [ 85826.031774893403053, 181506.341696064919233 ], [ 85823.829790890216827, 181508.015616063028574 ], [ 85823.050014890730381, 181512.934976067394018 ], [ 85822.114526890218258, 181518.83673607185483 ], [ 85821.17865489423275, 181524.74060807749629 ], [ 85822.485278889536858, 181541.376576088368893 ], [ 85832.089758902788162, 181550.849792093038559 ], [ 85869.864926926791668, 181558.144896101206541 ], [ 85873.406622931361198, 181558.828864101320505 ], [ 85873.512478925287724, 181558.656064100563526 ], [ 85878.97763092815876, 181549.735360093414783 ], [ 85880.691934935748577, 181546.937088090926409 ], [ 85883.216030932962894, 181542.817024089396 ], [ 85885.320990934967995, 181528.886976078152657 ], [ 85884.473886936903, 181527.904448077082634 ] ] ] ] } },
{ "type": "Feature", "properties": { "id": 5, "naam": "Zulte" }, "geometry": { "type": "MultiPolygon", "coordinates": [ [ [ [ 84731.558494135737419, 180040.334271050989628 ], [ 84730.866718135774136, 180038.997055049985647 ], [ 84729.710494138300419, 180038.811455048620701 ], [ 84724.723998136818409, 180038.011071048676968 ], [ 84724.736030131578445, 180040.345983050763607 ], [ 84716.637150131165981, 180040.387647051364183 ], [ 84716.534622125327587, 180038.899903047829866 ], [ 84709.589086122810841, 180038.730047050863504 ], [ 84709.573022119700909, 180034.497023046016693 ], [ 84707.13884612172842, 180033.773567046970129 ], [ 84707.069022119045258, 180033.752831045538187 ], [ 84706.174046121537685, 180033.721535045653582 ], [ 84696.446302115917206, 180033.381695047020912 ], [ 84695.09622211009264, 180033.334527045488358 ], [ 84684.331742107868195, 180033.50047904625535 ], [ 84667.258526094257832, 180034.963903047144413 ], [ 84645.778526082634926, 180037.80550304800272 ], [ 84636.982942074537277, 180038.969087049365044 ], [ 84636.832350075244904, 180038.988991048187017 ], [ 84606.081438049674034, 180045.122047051787376 ], [ 84601.154206044971943, 180046.104767054319382 ], [ 84597.163806043565273, 180051.009791057556868 ], [ 84594.422174043953419, 180054.379775058478117 ], [ 84593.213790044188499, 180055.865087062120438 ], [ 84581.784926034510136, 180071.942783072590828 ], [ 84577.099550031125546, 180078.534015078097582 ], [ 84555.366174019873142, 180110.874815098941326 ], [ 84552.556382015347481, 180115.14207910373807 ], [ 84548.127006009221077, 180121.868991106748581 ], [ 84556.136926017701626, 180127.178111109882593 ], [ 84570.522206030786037, 180136.7128951177001 ], [ 84571.231326028704643, 180137.182911116629839 ], [ 84611.098846055567265, 180163.607743136584759 ], [ 84614.108126059174538, 180165.602367136627436 ], [ 84632.668830066919327, 180177.904703143984079 ], [ 84633.498142071068287, 180177.858815144747496 ], [ 84636.702622070908546, 180177.681471146643162 ], [ 84637.728862076997757, 180177.624703146517277 ], [ 84640.627678073942661, 180173.227519143372774 ], [ 84651.038878083229065, 180157.434687130153179 ], [ 84671.707102097570896, 180128.902847111225128 ], [ 84674.587294101715088, 180124.926783107221127 ], [ 84676.166046097874641, 180122.747327107936144 ], [ 84701.22300611436367, 180088.814207084476948 ], [ 84705.130910120904446, 180083.521983079612255 ], [ 84710.373342126607895, 180076.422463074326515 ], [ 84730.648862138390541, 180048.964671056717634 ], [ 84732.336542136967182, 180047.119999054819345 ], [ 84733.676254138350487, 180045.655679054558277 ], [ 84734.082078143954277, 180045.21209505200386 ], [ 84731.558494135737419, 180040.334271050989628 ] ] ] ] } }
]
}
